{
  "type": "FeatureCollection",
  "features": [
    {
      "type": "Feature",
      "properties": {
        "norad_id": 43262,
        "name": "GAOFEN-1 04",
        "group": "resource",
        "lat": 5.075119410834651,
        "lon": -128.69559871120737,
        "alt_km": 643.100363616054,
        "timestamp": "2025-12-18T17:50:14.614018+00:00",
        "meta_object_name": "GAOFEN-1 04",
        "meta_object_id": "2018-031D",
        "meta_epoch": "2025-12-18T07:17:22.286688",
        "meta_mean_motion": 14.76460753,
        "meta_eccentricity": 8.51e-05,
        "meta_inclination": 98.0807,
        "meta_ra_of_asc_node": 50.1418,
        "meta_arg_of_pericenter": 60.4729,
        "meta_mean_anomaly": 299.6565,
        "meta_ephemeris_type": 0,
        "meta_classification_type": "U",
        "meta_norad_cat_id": 43262,
        "meta_element_set_no": 999,
        "meta_rev_at_epoch": 41599,
        "meta_bstar": 8.125764e-05,
        "meta_mean_motion_dot": 5.14e-06,
        "meta_mean_motion_ddot": 0,
        "tle_line1": "1 43262U 18031D   25352.30373017  .00000514  00000+0  81258-4 0  9998",
        "tle_line2": "2 43262  98.0807  50.1418 0000851  60.4729 299.6565 14.76460753415995"
      },
      "geometry": {
        "type": "Point",
        "coordinates": [
          -128.69559871120737,
          5.075119410834651
        ]
      }
    },
    {
      "type": "Feature",
      "properties": {
        "norad_id": 43437,
        "name": "SENTINEL-3B",
        "group": "resource",
        "lat": -11.49802338913033,
        "lon": 59.61186485333698,
        "alt_km": 807.2764850300728,
        "timestamp": "2025-12-18T17:50:14.614028+00:00",
        "meta_object_name": "SENTINEL-3B",
        "meta_object_id": "2018-039A",
        "meta_epoch": "2025-12-18T04:25:36.607872",
        "meta_mean_motion": 14.26736083,
        "meta_eccentricity": 0.00016153,
        "meta_inclination": 98.6262,
        "meta_ra_of_asc_node": 57.2917,
        "meta_arg_of_pericenter": 96.1081,
        "meta_mean_anomaly": 264.0284,
        "meta_ephemeris_type": 0,
        "meta_classification_type": "U",
        "meta_norad_cat_id": 43437,
        "meta_element_set_no": 999,
        "meta_rev_at_epoch": 39831,
        "meta_bstar": 6.7707414e-05,
        "meta_mean_motion_dot": 1.2e-06,
        "meta_mean_motion_ddot": 0,
        "tle_line1": "1 43437U 18039A   25352.18445148  .00000120  00000+0  67707-4 0  9997",
        "tle_line2": "2 43437  98.6262  57.2917 0001615  96.1081 264.0284 14.26736083398315"
      },
      "geometry": {
        "type": "Point",
        "coordinates": [
          59.61186485333698,
          -11.49802338913033
        ]
      }
    },
    {
      "type": "Feature",
      "properties": {
        "norad_id": 43461,
        "name": "GAOFEN-5 01",
        "group": "resource",
        "lat": -15.550911036540045,
        "lon": -41.81852979616791,
        "alt_km": 696.2115007327538,
        "timestamp": "2025-12-18T17:50:14.614038+00:00",
        "meta_object_name": "GAOFEN-5 01",
        "meta_object_id": "2018-043A",
        "meta_epoch": "2025-12-17T22:10:37.827552",
        "meta_mean_motion": 14.60415423,
        "meta_eccentricity": 6.462e-05,
        "meta_inclination": 98.4331,
        "meta_ra_of_asc_node": 314.9819,
        "meta_arg_of_pericenter": 313.2433,
        "meta_mean_anomaly": 46.8713,
        "meta_ephemeris_type": 0,
        "meta_classification_type": "U",
        "meta_norad_cat_id": 43461,
        "meta_element_set_no": 999,
        "meta_rev_at_epoch": 40523,
        "meta_bstar": 8.6662537e-05,
        "meta_mean_motion_dot": 3.71e-06,
        "meta_mean_motion_ddot": 0,
        "tle_line1": "1 43461U 18043A   25351.92404893  .00000371  00000+0  86663-4 0  9992",
        "tle_line2": "2 43461  98.4331 314.9819 0000646 313.2433  46.8713 14.60415423405231"
      },
      "geometry": {
        "type": "Point",
        "coordinates": [
          -41.81852979616791,
          -15.550911036540045
        ]
      }
    },
    {
      "type": "Feature",
      "properties": {
        "norad_id": 43484,
        "name": "GAOFEN-6",
        "group": "resource",
        "lat": -31.647175261388224,
        "lon": 61.657148540697364,
        "alt_km": 644.2726853941895,
        "timestamp": "2025-12-18T17:50:14.614049+00:00",
        "meta_object_name": "GAOFEN-6",
        "meta_object_id": "2018-048A",
        "meta_epoch": "2025-12-18T06:35:49.747776",
        "meta_mean_motion": 14.76575772,
        "meta_eccentricity": 0.0012959,
        "meta_inclination": 97.8031,
        "meta_ra_of_asc_node": 56.3562,
        "meta_arg_of_pericenter": 47.2559,
        "meta_mean_anomaly": 312.9739,
        "meta_ephemeris_type": 0,
        "meta_classification_type": "U",
        "meta_norad_cat_id": 43484,
        "meta_element_set_no": 999,
        "meta_rev_at_epoch": 40669,
        "meta_bstar": 8.9613211e-05,
        "meta_mean_motion_dot": 5.77e-06,
        "meta_mean_motion_ddot": 0,
        "tle_line1": "1 43484U 18048A   25352.27488134  .00000577  00000+0  89613-4 0  9997",
        "tle_line2": "2 43484  97.8031  56.3562 0012959  47.2559 312.9739 14.76575772406698"
      },
      "geometry": {
        "type": "Point",
        "coordinates": [
          61.657148540697364,
          -31.647175261388224
        ]
      }
    },
    {
      "type": "Feature",
      "properties": {
        "norad_id": 43585,
        "name": "GAOFEN-11 01",
        "group": "resource",
        "lat": -80.80425704203283,
        "lon": -175.2771628587345,
        "alt_km": 423.2593802408537,
        "timestamp": "2025-12-18T17:50:14.614059+00:00",
        "meta_object_name": "GAOFEN-11 01",
        "meta_object_id": "2018-063A",
        "meta_epoch": "2025-12-18T07:23:59.954784",
        "meta_mean_motion": 15.49379628,
        "meta_eccentricity": 0.00040599,
        "meta_inclination": 97.1562,
        "meta_ra_of_asc_node": 55.1969,
        "meta_arg_of_pericenter": 284.6905,
        "meta_mean_anomaly": 75.3897,
        "meta_ephemeris_type": 0,
        "meta_classification_type": "U",
        "meta_norad_cat_id": 43585,
        "meta_element_set_no": 999,
        "meta_rev_at_epoch": 41228,
        "meta_bstar": 0.00029352342,
        "meta_mean_motion_dot": 0.00016019,
        "meta_mean_motion_ddot": 0,
        "tle_line1": "1 43585U 18063A   25352.30833281  .00016019  00000+0  29352-3 0  9998",
        "tle_line2": "2 43585  97.1562  55.1969 0004059 284.6905  75.3897 15.49379628412284"
      },
      "geometry": {
        "type": "Point",
        "coordinates": [
          -175.2771628587345,
          -80.80425704203283
        ]
      }
    },
    {
      "type": "Feature",
      "properties": {
        "norad_id": 43613,
        "name": "ICESAT-2",
        "group": "resource",
        "lat": -84.67859814326088,
        "lon": 40.26177861022593,
        "alt_km": 489.7843335430043,
        "timestamp": "2025-12-18T17:50:14.614069+00:00",
        "meta_object_name": "ICESAT-2",
        "meta_object_id": "2018-070A",
        "meta_epoch": "2025-12-18T05:40:50.866176",
        "meta_mean_motion": 15.28289744,
        "meta_eccentricity": 0.00027969,
        "meta_inclination": 92.0052,
        "meta_ra_of_asc_node": 242.2206,
        "meta_arg_of_pericenter": 129.3374,
        "meta_mean_anomaly": 230.8124,
        "meta_ephemeris_type": 0,
        "meta_classification_type": "U",
        "meta_norad_cat_id": 43613,
        "meta_element_set_no": 999,
        "meta_rev_at_epoch": 40482,
        "meta_bstar": 0.0004056309,
        "meta_mean_motion_dot": 0.00011177,
        "meta_mean_motion_ddot": 0,
        "tle_line1": "1 43613U 18070A   25352.23669984  .00011177  00000+0  40563-3 0  9994",
        "tle_line2": "2 43613  92.0052 242.2206 0002796 129.3374 230.8124 15.28289744404826"
      },
      "geometry": {
        "type": "Point",
        "coordinates": [
          40.26177861022593,
          -84.67859814326088
        ]
      }
    },
    {
      "type": "Feature",
      "properties": {
        "norad_id": 43719,
        "name": "HYSIS",
        "group": "resource",
        "lat": 47.926113501752,
        "lon": 46.71835591903292,
        "alt_km": 628.5011315568318,
        "timestamp": "2025-12-18T17:50:14.614080+00:00",
        "meta_object_name": "HYSIS",
        "meta_object_id": "2018-096A",
        "meta_epoch": "2025-12-18T07:52:26.895648",
        "meta_mean_motion": 14.78659109,
        "meta_eccentricity": 0.00011306,
        "meta_inclination": 98.0097,
        "meta_ra_of_asc_node": 55.2788,
        "meta_arg_of_pericenter": 50.4349,
        "meta_mean_anomaly": 309.6962,
        "meta_ephemeris_type": 0,
        "meta_classification_type": "U",
        "meta_norad_cat_id": 43719,
        "meta_element_set_no": 999,
        "meta_rev_at_epoch": 38069,
        "meta_bstar": 9.9352448e-05,
        "meta_mean_motion_dot": 6.76e-06,
        "meta_mean_motion_ddot": 0,
        "tle_line1": "1 43719U 18096A   25352.32808907  .00000676  00000+0  99352-4 0  9992",
        "tle_line2": "2 43719  98.0097  55.2788 0001130  50.4349 309.6962 14.78659109380695"
      },
      "geometry": {
        "type": "Point",
        "coordinates": [
          46.71835591903292,
          47.926113501752
        ]
      }
    }
  ]
}